{"type": "FeatureCollection", "features": [ {"type": "Feature", "properties": {"norad_id": 37216, "name": "COSMO-SKYMED 4", "group": "resource", "lat": 26.869753303074795, "lon": -10.374919890046783, "alt_km": 621.2247731103034, "timestamp": "2025-12-10T05:46:13.454089+00:00", "meta": {"OBJECT_NAME": "COSMO-SKYMED 4", "OBJECT_ID": "2010-060A", "EPOCH": "2025-12-09T19:21:43.790976", "MEAN_MOTION": 14.82164679, "ECCENTRICITY": 0.0001409, "INCLINATION": 97.8804, "RA_OF_ASC_NODE": 165.174, "ARG_OF_PERICENTER": 80.2315, "MEAN_ANOMALY": 279.9058, "EPHEMERIS_TYPE": 0, "CLASSIFICATION_TYPE": "U", "NORAD_CAT_ID": 37216, "ELEMENT_SET_NO": 999, "REV_AT_EPOCH": 81651, "BSTAR": 0.00018601, "MEAN_MOTION_DOT": 1.429e-05, "MEAN_MOTION_DDOT": 0}, "tle": {"line1": "1 37216U 10060A   25343.80675684  .00001429  00000+0  18601-3 0  9991", "line2": "2 37216  97.8804 165.1740 0001409  80.2315 279.9058 14.82164679816513"}}, "geometry": {"type": "Point", "coordinates": [-10.374919890046783, 26.869753303074795]}}, {"type": "Feature", "properties": {"norad_id": 37387, "name": "RESOURCESAT-2", "group": "resource", "lat": -57.348524883624464, "lon": 61.77301669830104, "alt_km": 828.413883127705, "timestamp": "2025-12-10T05:46:13.454102+00:00", "meta": {"OBJECT_NAME": "RESOURCESAT-2", "OBJECT_ID": "2011-015A", "EPOCH": "2025-12-09T19:54:34.426368", "MEAN_MOTION": 14.21595596, "ECCENTRICITY": 0.0006566, "INCLINATION": 98.788, "RA_OF_ASC_NODE": 47.3944, "ARG_OF_PERICENTER": 50.1194, "MEAN_ANOMALY": 310.0559, "EPHEMERIS_TYPE": 0, "CLASSIFICATION_TYPE": "U", "NORAD_CAT_ID": 37387, "ELEMENT_SET_NO": 999, "REV_AT_EPOCH": 75927, "BSTAR": 0.00014583, "MEAN_MOTION_DOT": 2.75e-06, "MEAN_MOTION_DDOT": 0}, "tle": {"line1": "1 37387U 11015A   25343.82956512  .00000275  00000+0  14583-3 0  9998", "line2": "2 37387  98.7880  47.3944 0006566  50.1194 310.0559 14.21595596759274"}}, "geometry": {"type": "Point", "coordinates": [61.77301669830104, -57.348524883624464]}}, {"type": "Feature", "properties": {"norad_id": 37781, "name": "HAIYANG-2A", "group": "resource", "lat": 13.398033532479689, "lon": -17.03325840955072, "alt_km": 968.5911840163371, "timestamp": "2025-12-10T05:46:13.454113+00:00", "meta": {"OBJECT_NAME": "HAIYANG-2A", "OBJECT_ID": "2011-043A", "EPOCH": "2025-12-09T20:59:49.566336", "MEAN_MOTION": 13.78834107, "ECCENTRICITY": 0.0001666, "INCLINATION": 99.3376, "RA_OF_ASC_NODE": 344.8529, "ARG_OF_PERICENTER": 86.7126, "MEAN_ANOMALY": 273.4216, "EPHEMERIS_TYPE": 0, "CLASSIFICATION_TYPE": "U", "NORAD_CAT_ID": 37781, "ELEMENT_SET_NO": 999, "REV_AT_EPOCH": 72059, "BSTAR": -8.8629e-05, "MEAN_MOTION_DOT": -1.34e-06, "MEAN_MOTION_DDOT": 0}, "tle": {"line1": "1 37781U 11043A   25343.87487924 -.00000134  00000+0 -88629-4 0  9997", "line2": "2 37781  99.3376 344.8529 0001666  86.7126 273.4216 13.78834107720599"}}, "geometry": {"type": "Point", "coordinates": [-17.03325840955072, 13.398033532479689]}}, {"type": "Feature", "properties": {"norad_id": 37791, "name": "RASAT", "group": "resource", "lat": 49.43873076517951, "lon": 63.99949693103412, "alt_km": 648.9417337017367, "timestamp": "2025-12-10T05:46:13.454124+00:00", "meta": {"OBJECT_NAME": "RASAT", "OBJECT_ID": "2011-044D", "EPOCH": "2025-12-09T20:11:57.992352", "MEAN_MOTION": 14.67903055, "ECCENTRICITY": 0.0021955, "INCLINATION": 98.0652, "RA_OF_ASC_NODE": 73.1424, "ARG_OF_PERICENTER": 73.5369, "MEAN_ANOMALY": 30.6184, "EPHEMERIS_TYPE": 0, "CLASSIFICATION_TYPE": "U", "NORAD_CAT_ID": 37791, "ELEMENT_SET_NO": 999, "REV_AT_EPOCH": 76540, "BSTAR": 0.00017806, "MEAN_MOTION_DOT": 9.73e-06, "MEAN_MOTION_DDOT": 0}, "tle": {"line1": "1 37791U 11044D   25343.84164343  .00000973  00000+0  17806-3 0  9990", "line2": "2 37791  98.0652  73.1424 0021955  73.5369  30.6184 14.67903055765409"}}, "geometry": {"type": "Point", "coordinates": [63.99949693103412, 49.43873076517951]}}, {"type": "Feature", "properties": {"norad_id": 37841, "name": "SRMSAT", "group": "resource", "lat": -15.83771417593468, "lon": 71.71311652504474, "alt_km": 845.8043033723934, "timestamp": "2025-12-10T05:46:13.454135+00:00", "meta": {"OBJECT_NAME": "SRMSAT", "OBJECT_ID": "2011-058D", "EPOCH": "2025-12-09T18:16:26.313024", "MEAN_MOTION": 14.11510038, "ECCENTRICITY": 0.0011712, "INCLINATION": 19.9704, "RA_OF_ASC_NODE": 125.9768, "ARG_OF_PERICENTER": 280.4028, "MEAN_ANOMALY": 107.1239, "EPHEMERIS_TYPE": 0, "CLASSIFICATION_TYPE": "U", "NORAD_CAT_ID": 37841, "ELEMENT_SET_NO": 999, "REV_AT_EPOCH": 73102, "BSTAR": 0.00014938, "MEAN_MOTION_DOT": 5.4e-06, "MEAN_MOTION_DDOT": 0}, "tle": {"line1": "1 37841U 11058D   25343.76141566  .00000540  00000+0  14938-3 0  9997", "line2": "2 37841  19.9704 125.9768 0011712 280.4028 107.1239 14.11510038731029"}}, "geometry": {"type": "Point", "coordinates": [71.71311652504474, -15.83771417593468]}}, {"type": "Feature", "properties": {"norad_id": 38012, "name": "PLEIADES 1A", "group": "resource", "lat": -69.07625486971111, "lon": 79.15329363284825, "alt_km": 705.8583979607029, "timestamp": "2025-12-10T05:46:13.454145+00:00", "meta": {"OBJECT_NAME": "PLEIADES 1A", "OBJECT_ID": "2011-076F", "EPOCH": "2025-12-09T20:50:25.395936", "MEAN_MOTION": 14.58556527, "ECCENTRICITY": 0.0001352, "INCLINATION": 98.1823, "RA_OF_ASC_NODE": 56.681, "ARG_OF_PERICENTER": 72.8091, "MEAN_ANOMALY": 63.9835, "EPHEMERIS_TYPE": 0, "CLASSIFICATION_TYPE": "U", "NORAD_CAT_ID": 38012, "ELEMENT_SET_NO": 999, "REV_AT_EPOCH": 74439, "BSTAR": 0.0001162, "MEAN_MOTION_DOT": 4.95e-06, "MEAN_MOTION_DDOT": 0}, "tle": {"line1": "1 38012U 11076F   25343.86834949  .00000495  00000+0  11620-3 0  9997", "line2": "2 38012  98.1823  56.6810 0001352  72.8091  63.9835 14.58556527744390"}}, "geometry": {"type": "Point", "coordinates": [79.15329363284825, -69.07625486971111]}}, {"type": "Feature", "properties": {"norad_id": 38038, "name": "ZIYUAN 1-02C (ZY 1-02C)", "group": "resource", "lat": 21.33789280691061, "lon": 46.97737615281591, "alt_km": 767.6587836153085, "timestamp": "2025-12-10T05:46:13.454156+00:00", "meta": {"OBJECT_NAME": "ZIYUAN 1-02C (ZY 1-02C)", "OBJECT_ID": "2011-079A", "EPOCH": "2025-12-09T21:34:31.636992", "MEAN_MOTION": 14.38006295, "ECCENTRICITY": 0.0007025, "INCLINATION": 98.4333, "RA_OF_ASC_NODE": 49.9647, "ARG_OF_PERICENTER": 145.9464, "MEAN_ANOMALY": 269.1727, "EPHEMERIS_TYPE": 0, "CLASSIFICATION_TYPE": "U", "NORAD_CAT_ID": 38038, "ELEMENT_SET_NO": 999, "REV_AT_EPOCH": 73200, "BSTAR": 0.00019112, "MEAN_MOTION_DOT": 5.35e-06, "MEAN_MOTION_DDOT": 0}, "tle": {"line1": "1 38038U 11079A   25343.89897728  .00000535  00000+0  19112-3 0  9994", "line2": "2 38038  98.4333  49.9647 0007025 145.9464 269.1727 14.38006295732004"}}, "geometry": {"type": "Point", "coordinates": [46.97737615281591, 21.33789280691061]}}, {"type": "Feature", "properties": {"norad_id": 38046, "name": "ZIYUAN 3-1 (ZY 3-1)", "group": "resource", "lat": 82.08234387350744, "lon": -14.336116749180489, "alt_km": 356.8397531671053, "timestamp": "2025-12-10T05:46:13.454166+00:00", "meta": {"OBJECT_NAME": "ZIYUAN 3-1 (ZY 3-1)", "OBJECT_ID": "2012-001A", "EPOCH": "2025-12-09T20:12:45.467424", "MEAN_MOTION": 15.6798163, "ECCENTRICITY": 0.0001929, "INCLINATION": 97.1751, "RA_OF_ASC_NODE": 50.1925, "ARG_OF_PERICENTER": 6.558, "MEAN_ANOMALY": 353.5706, "EPHEMERIS_TYPE": 0, "CLASSIFICATION_TYPE": "U", "NORAD_CAT_ID": 38046, "ELEMENT_SET_NO": 999, "REV_AT_EPOCH": 77451, "BSTAR": 0.00085144, "MEAN_MOTION_DOT": 0.00094857, "MEAN_MOTION_DDOT": 0}, "tle": {"line1": "1 38046U 12001A   25343.84219291  .00094857  00000+0  85144-3 0  9995", "line2": "2 38046  97.1751  50.1925 0001929   6.5580 353.5706 15.67981630774519"}}, "geometry": {"type": "Point", "coordinates": [-14.336116749180489, 82.08234387350744]}}, {"type": "Feature", "properties": {"norad_id": 38338, "name": "ARIRANG-3 (KOMPSAT-3)", "group": "resource", "lat": 21.193905241202437, "lon": 122.0685723591756, "alt_km": 691.4236771960332, "timestamp": "2025-12-10T05:46:13.454176+00:00", "meta": {"OBJECT_NAME": "ARIRANG-3 (KOMPSAT-3)", "OBJECT_ID": "2012-025B", "EPOCH": "2025-12-09T20:50:00.051360", "MEAN_MOTION": 14.61707154, "ECCENTRICITY": 0.0005564, "INCLINATION": 98.3318, "RA_OF_ASC_NODE": 298.4359, "ARG_OF_PERICENTER": 348.3088, "MEAN_ANOMALY": 11.7983, "EPHEMERIS_TYPE": 0, "CLASSIFICATION_TYPE": "U", "NORAD_CAT_ID": 38338, "ELEMENT_SET_NO": 999, "REV_AT_EPOCH": 72368, "BSTAR": 0.00022571, "MEAN_MOTION_DOT": 1.076e-05, "MEAN_MOTION_DDOT": 0}, "tle": {"line1": "1 38338U 12025B   25343.86805615  .00001076  00000+0  22571-3 0  9994", "line2": "2 38338  98.3318 298.4359 0005564 348.3088  11.7983 14.61707154723684"}}, "geometry": {"type": "Point", "coordinates": [122.0685723591756, 21.193905241202437]}}, {"type": "Feature", "properties": {"norad_id": 38709, "name": "EXACTVIEW-1 (ADS-1B)", "group": "resource", "lat": 52.10908622426003, "lon": -75.7206710160964, "alt_km": 808.4122754723267, "timestamp": "2025-12-10T05:46:13.454187+00:00", "meta": {"OBJECT_NAME": "EXACTVIEW-1 (ADS-1B)", "OBJECT_ID": "2012-039C", "EPOCH": "2025-12-09T19:03:56.772576", "MEAN_MOTION": 14.24906377, "ECCENTRICITY": 0.0010824, "INCLINATION": 98.9635, "RA_OF_ASC_NODE": 92.1227, "ARG_OF_PERICENTER": 2.7856, "MEAN_ANOMALY": 357.3381, "EPHEMERIS_TYPE": 0, "CLASSIFICATION_TYPE": "U", "NORAD_CAT_ID": 38709, "ELEMENT_SET_NO": 999, "REV_AT_EPOCH": 69573, "BSTAR": 0.00015728, "MEAN_MOTION_DOT": 3.21e-06, "MEAN_MOTION_DDOT": 0}, "tle": {"line1": "1 38709U 12039C   25343.79440709  .00000321  00000+0  15728-3 0  9990", "line2": "2 38709  98.9635  92.1227 0010824   2.7856 357.3381 14.24906377695738"}}, "geometry": {"type": "Point", "coordinates": [-75.7206710160964, 52.10908622426003]}}]}